{
  "norad_id": 67365,
  "name": "LEMUR-2-MARIO-SOUSA",
  "history": [
    {
      "epoch": "2026-03-28T21:40:57.521856",
      "apogee_km": 611.6719037311814,
      "perigee_km": 597.9559914798947,
      "latitude_deg": -57.43684667786047,
      "longitude_deg": -76.76942015998065,
      "semi_major_axis_km": 6982.950947605537,
      "eccentricity": 0.0009821,
      "inclination_deg": 97.8001,
      "raan_deg": 87.7357,
      "arg_perigee_deg": 53.2091,
      "mean_anomaly_deg": 307.0025,
      "mean_motion_rev_day": 14.87799043
    }
  ]
}